HISPASAT 1E             
1 37264U 10070A   18244.42337462 -.00000224  00000-0  00000+0 0  9998
2 37264   0.0157 141.3585 0005501  19.6039 301.9979  1.00272815 28131
KOREASAT 6              
1 37265U 10070B   18245.06438097 -.00000371  00000-0  00000+0 0  9999
2 37265   0.0166 118.9409 0001414  46.2665 315.1401  1.00269573 28153
INTELSAT NEW DAWN       
1 37392U 11016A   18245.15384781  .00000146  00000-0  00000+0 0  9990
2 37392   0.0204 190.8621 0000172  83.9320 154.6710  1.00274310 26981
YAHSAT 1A               
1 37393U 11016B   18245.44494656  .00000090  00000-0  00000+0 0  9994
2 37393   0.0205 136.1236 0002290  47.6287  10.4801  1.00274062 27031
TELSTAR 14R             
1 37602U 11021A   18245.54354950 -.00000290  00000-0  00000+0 0  9999
2 37602   0.0131 317.4175 0000835 191.7889 325.1133  1.00271025 27265
GSAT-8                  
1 37605U 11022A   18245.13521580  .00000075  00000-0  00000+0 0  9993
2 37605   0.0153 154.9989 0004931  97.6075 192.3594  1.00271385 26714
ST-2                    
1 37606U 11022B   18245.14355226 -.00000221  00000-0  00000+0 0  9991
2 37606   0.0150 165.4271 0002039  20.5613 294.9432  1.00273348 26725
CHINASAT 10 (ZX 10)     
1 37677U 11026A   18245.22313698 -.00000362  00000-0  00000+0 0  9995
2 37677   0.0634 262.0291 0004981 270.5158 359.6004  1.00274829 26443
TIANLIAN 1-02           
1 37737U 11032A   18245.08143341  .00000019  00000-0  00000+0 0  9997
2 37737   2.8830  74.2732 0003935 143.8134 329.2102  1.00272874 26197
GSAT-12                 
1 37746U 11034A   18245.45096583 -.00000175  00000-0  00000+0 0  9999
2 37746   0.0531 276.7175 0009694 169.2351 140.9464  1.00272154 26433
SES-3                   
1 37748U 11035A   18245.46716132 -.00000112  00000-0  00000+0 0  9993
2 37748   0.0581 298.3180 0002049 235.3621 233.0615  1.00271970 26176
KAZSAT-2                
1 37749U 11035B   18245.14355226 -.00000207  00000-0  00000+0 0  9997
2 37749   0.0162 220.6616 0000769 356.9009 261.8817  1.00272412 26042
ASTRA 1N                
1 37775U 11041A   18245.39910590  .00000110  00000-0  00000+0 0  9993
2 37775   0.0521 322.8339 0002702 149.9108  31.6334  1.00269776 25872
BSAT-3C (JCSAT-110R)    
1 37776U 11041B   18245.13382547 -.00000360  00000-0  00000+0 0  9999
2 37776   0.0641 290.4271 0000181 182.0402  26.9200  1.00271905 25994
PAKSAT-1R               
1 37779U 11042A   18244.88382726  .00000145  00000-0  00000-0 0  9994
2 37779   0.0139  95.9407 0003416  45.9918 195.1541  1.00272685 25949
CHINASAT 1A (ZX 1A)     
1 37804U 11047A   18245.46030005 -.00000348  00000-0  00000+0 0  9998
2 37804   0.0540 292.4017 0002187 342.3508   2.3621  1.00272982 25553
COSMOS 2473             
1 37806U 11048A   18245.35997887 -.00000118  00000-0  00000+0 0  9994
2 37806   0.0438 112.2858 0001226  71.3677 273.8973  1.00272030 25540
SES-2                   
1 37809U 11049A   18244.84254272 -.00000205  00000-0  00000-0 0  9993
2 37809   0.0494 299.3975 0002669 224.2804  33.5911  1.00272100 25490
ARABSAT-5C              
1 37810U 11049B   18244.86646620  .00000114  00000-0  00000-0 0  9997
2 37810   0.0618   0.1042 0002898 156.0289 156.7483  1.00270671 25523
EUTELSAT 7 WEST A       
1 37816U 11051A   18244.07538123 -.00000068  00000-0  00000+0 0  9995
2 37816   0.0659  26.1238 0006752 149.6078 184.2841  1.00272207 25437
QUETZSAT 1              
1 37826U 11054A   18244.84472361 -.00000250  00000-0  00000-0 0  9999
2 37826   0.0608 296.9509 0002898 230.7886  40.3138  1.00270749 21386
INTELSAT 18 (IS-18)     
1 37834U 11056A   18245.18315904  .00000044  00000-0  00000+0 0  9996
2 37834   0.0122 132.1346 0002043  42.6301  52.4806  1.00273806 25321
EUTELSAT 16A            
1 37836U 11057A   18244.87132536  .00000095  00000-0  00000-0 0  9999
2 37836   0.0665   2.7926 0004533 156.0606 151.7899  1.00270494 17466
VIASAT-1                
1 37843U 11059A   18244.59007965 -.00000032  00000-0  00000-0 0  9997
2 37843   0.0196 150.2139 0002444  14.9530 272.8554  1.00270055 18798
ASIASAT 7               
1 37933U 11069A   18245.53370986 -.00000344  00000-0  00000+0 0  9994
2 37933   0.0245 247.0946 0001510 259.2880 132.8822  1.00273932 24932
LUCH 5A                 
1 37951U 11074B   18244.82272639 -.00000055  00000-0  00000-0 0  9997
2 37951   1.9704 144.3041 0001607 359.9883 299.8394  1.00270683 24652
NIGCOMSAT 1R            
1 38014U 11077A   18244.83990425  .00000135  00000-0  00000-0 0  9990
2 38014   0.0149 103.2699 0001971 278.1174 304.4221  1.00273954 24429
FENGYUN 2F              
1 38049U 12002A   18244.95435656 -.00000367  00000-0  00000-0 0  9998
2 38049   2.6173  77.9303 0004003 223.2281 135.5529  1.00267689 24354
SES-4                   
1 38087U 12007A   18245.35823416 -.00000178  00000-0  00000+0 0  9994
2 38087   0.0155  64.4943 0002243  99.8254 284.0930  1.00272009 23964
BEIDOU 11               
1 38091U 12008A   18245.15899472  .00000045  00000-0  00000+0 0  9995
2 38091   1.5631  64.5219 0002282 294.3178  98.5098  1.00278730 23950
INTELSAT 22 (IS-22)     
1 38098U 12011A   18244.85263600 -.00000068  00000-0  00000-0 0  9997
2 38098   0.0169 153.4983 0002663  14.4867 192.0214  1.00270414 23302
APSTAR 7                
1 38107U 12013A   18244.87936134 -.00000111  00000-0  00000-0 0  9990
2 38107   0.0126 135.9085 0003078  19.5031 218.6534  1.00272458 23641
YAHSAT 1B               
1 38245U 12016A   18243.92323995  .00000118  00000-0  00000+0 0  9991
2 38245   0.0119 198.2493 0001098 329.4121 192.3508  1.00272394 23383
JCSAT-13                
1 38331U 12023A   18244.70888510 -.00000365  00000-0  00000+0 0  9996
2 38331   0.0292 243.7045 0002357 276.9982 199.3162  1.00272847 23049
VINASAT-2               
1 38332U 12023B   18245.54459208 -.00000339  00000-0  00000+0 0  9999
2 38332   0.0489 299.1301 0001669 223.2893 147.1241  1.00272693 23092
NIMIQ 6                 
1 38342U 12026A   18245.30474851 -.00000184  00000-0  00000+0 0  9996
2 38342   0.0610 288.7920 0001497 224.3281 206.8974  1.00271850 23070
CHINASAT 2A (ZX 2A)     
1 38352U 12028A   18244.87974417 -.00000302  00000-0  00000-0 0  9996
2 38352   0.0545 296.7709 0000762 340.5554 118.6175  1.00273049 22849
INTELSAT 19 (IS-19)     
1 38356U 12030A   18244.59249822 -.00000065  00000-0  00000+0 0  9992
2 38356   0.0442 305.7866 0002892 223.8548 190.3745  1.00272504 22986
ECHOSTAR 17             
1 38551U 12035A   18244.35181947 -.00000083  00000-0  00000-0 0  9992
2 38551   0.0097 126.4745 0001965  33.8328 199.7102  1.00271767 22540
METEOSAT-10 (MSG-3)     
1 38552U 12035B   18245.00342722  .00000053  00000-0  00000+0 0  9991
2 38552   1.0426 351.3112 0000322 118.6326 241.9109  1.00264571 22688
SES-5                   
1 38652U 12036A   18244.86112394  .00000025  00000-0  00000-0 0  9996
2 38652   0.0447 267.5606 0001984 265.8096 122.5802  1.00272524 15976
TIANLIAN 1-03           
1 38730U 12040A   18245.02319334  .00000063  00000-0  00000+0 0  9991
2 38730   0.1952 274.9069 0006366 229.8991 215.2457  1.00270691 22464
INTELSAT 20 (IS-20)     
1 38740U 12043A   18244.86264196 -.00000034  00000-0  00000+0 0  9990
2 38740   0.0186 141.5716 0002234  46.7793 171.6554  1.00272338 22303
HYLAS 2                 
1 38741U 12043B   18243.96919798  .00000146  00000-0  00000+0 0  9999
2 38741   0.0487 293.2249 0001889 232.8125 193.9774  1.00272455 22318
INTELSAT 21 (IS-21)     
1 38749U 12045A   18245.21304097 -.00000295  00000-0  00000+0 0  9995
2 38749   0.0140 116.7030 0002051  51.0613 192.2507  1.00271935 22110
ASTRA 2F                
1 38778U 12051A   18244.97417420  .00000141  00000-0  00000+0 0  9990
2 38778   0.0920 247.2365 0003972 313.1877 159.5698  1.00268439 21768
GSAT-10                 
1 38779U 12051B   18244.82243291 -.00000175  00000-0  00000-0 0  9997
2 38779   0.0383 287.0130 0001556 184.6125 248.4009  1.00273051 21587
INTELSAT 23 (IS-23)     
1 38867U 12057A   18245.19919789 -.00000294  00000-0  00000+0 0  9995
2 38867   0.0121 142.0327 0001822  33.4663 184.5126  1.00270935 21585
BEIDOU 16               
1 38953U 12059A   18244.95854663 -.00000186  00000-0  00000-0 0  9996
2 38953   2.0155  81.1230 0001946 117.0076 212.0735  1.00271870 21515
LUCH 5B                 
1 38977U 12061A   18245.43116330 -.00000142  00000-0  00000+0 0  9992
2 38977   4.4201  71.6838 0001615  10.6671  38.1054  1.00270287 21656
YAMAL 300K              
1 38978U 12061B   18245.18376969  .00000062  00000-0  00000+0 0  9991
2 38978   0.0222 208.1992 0000969  38.1651 344.0314  1.00272883 21342
STAR ONE C3             
1 38991U 12062A   18244.84515979 -.00000258  00000-0  00000-0 0  9994
2 38991   0.0279 262.5200 0002071 240.2356  67.4630  1.00273024 21243
EUTELSAT 21B            
1 38992U 12062B   18244.99262982  .00000120  00000-0  00000+0 0  9990
2 38992   0.0667   4.1828 0002522 150.0709 205.7689  1.00270095 21349
ECHOSTAR 16             
1 39008U 12065A   18245.22276408 -.00000292  00000-0  00000+0 0  9998
2 39008   0.0157 143.0902 0002042  16.3180 200.6099  1.00271594 21289
CHINASAT 12 (ZX 12)     
1 39017U 12067A   18244.84369569 -.00000216  00000-0  00000-0 0  9995
2 39017   0.0221 134.0255 0002771  37.3064 200.8340  1.00271164 20974
EUTELSAT 70B            
1 39020U 12069A   18244.85707489 -.00000053  00000-0  00000+0 0  9997
2 39020   0.0634 347.2826 0003215 178.7302 194.0061  1.00271997 21088
YAMAL 402               
1 39022U 12070A   18245.51717781  .00000075  00000-0  00000+0 0  9994
2 39022   0.0086 130.5873 0002857  41.9285  50.1858  1.00273144 21079
SKYNET 5D               
1 39034U 12075A   18244.89424372  .00000090  00000-0  00000-0 0  9991
2 39034   0.0738 354.4791 0003668 175.1484 186.0599  1.00269225 20631
MEXSAT 3                
1 39035U 12075B   18244.37301275 -.00000034  00000-0  00000+0 0  9999
2 39035   0.0222 200.0858 0002338 338.7359 181.1887  1.00270544 20947
